IRIDIUM 39              
1 25042U 97069D   25145.20515264  .00000469  00000+0  11758-3 0  9999
2 25042  86.3944 220.9772 0018758  30.7961 329.4339 14.49194868445890
IRIDIUM 38              
1 25043U 97069E   25145.20753586  .00000370  00000+0  11574-3 0  9998
2 25043  86.3969 242.8172 0003274 130.8130 229.3352 14.38098711442913
IRIDIUM 42              
1 25077U 97077A   25144.76753304  .00000333  00000+0  10713-3 0  9995
2 25077  86.3967 249.1442 0002283 114.0939 246.0497 14.36334083437832
IRIDIUM 44              
1 25078U 97077B   25144.78517933  .00000342  00000+0  10179-3 0  9990
2 25078  86.3982 231.1220 0004157  99.6730 260.4939 14.40224175440339
IRIDIUM 45              
1 25104U 97082A   25144.78159453  .00019684  00000+0  71238-3 0  9997
2 25104  86.3599  59.2512 0121574  60.1637 301.1625 15.21461406448487
IRIDIUM 24              
1 25105U 97082B   25145.34349654  .00000474  00000+0  13817-3 0  9991
2 25105  86.3894  89.9899 0012423 143.8511 216.3531 14.42077349440178
IRIDIUM 51              
1 25262U 98018A   25145.21012970  .00034234  00000+0  79095-3 0  9990
2 25262  86.3851  67.1974 0087682 341.0836  18.7164 15.38319878443719
IRIDIUM 57              
1 25273U 98019B   25144.54790630  .00000320  00000+0  10380-3 0  9995
2 25273  86.3966 155.1648 0002321  92.2027 267.9435 14.35878147421392
